0 BREEZE-M DEB
1 38578U 08011Z   13280.22495135 -.00000348  00000-0 -42755-2 0  1619
2 38578 047.5730 168.5445 6555471 286.2999 327.4105 03.00116776 25886
0 BREEZE-M DEB
1 38578U 08011Z   13290.55727023  .00000414  00000-0  35009-2 0  1627
2 38578 047.5622 164.8576 6550430 289.7568 330.5260 03.00102628 26193
0 BREEZE-M DEB
1 38578U 08011Z   13293.92919564 -.00000673  00000-0  00000+0 0  1677
2 38578 047.5576 163.6104 6552201 290.9124 013.4794 03.00102245 26302
0 BREEZE-M DEB
1 38578U 08011Z   13293.94194619  .00000162  00000-0  10939-2 0  1638
2 38578 047.5655 163.6428 6548968 290.8969 027.2453 03.00104116 26304
